CCSDS_OMM_VERS = 2.0
CREATION_DATE  = 
ORIGINATOR     = 

OBJECT_NAME    = STARLINK-36903
OBJECT_ID      = 2026-039R
CENTER_NAME    = EARTH
REF_FRAME      = TEME
TIME_SYSTEM    = UTC
MEAN_ELEMENT_THEORY = SGP/SGP4

EPOCH          = 2026-03-28T22:00:01.999584
MEAN_MOTION    = 15.28393401
ECCENTRICITY   = .00012527
INCLINATION    = 42.9993
RA_OF_ASC_NODE = 300.8155
ARG_OF_PERICENTER = 284.3236
MEAN_ANOMALY   = 252.8190

EPHEMERIS_TYPE = 0
CLASSIFICATION_TYPE = U
NORAD_CAT_ID   = 68001
ELEMENT_SET_NO = 999
REV_AT_EPOCH   = 596
BSTAR          = .10312967E-2
MEAN_MOTION_DOT = .28944E-3
MEAN_MOTION_DDOT = 0

CCSDS_OMM_VERS = 2.0
CREATION_DATE  = 
ORIGINATOR     = 

OBJECT_NAME    = STARLINK-36898
OBJECT_ID      = 2026-039S
CENTER_NAME    = EARTH
REF_FRAME      = TEME
TIME_SYSTEM    = UTC
MEAN_ELEMENT_THEORY = SGP/SGP4

EPOCH          = 2026-03-28T22:00:01.999584
MEAN_MOTION    = 15.28380599
ECCENTRICITY   = .00020345
INCLINATION    = 42.9993
RA_OF_ASC_NODE = 300.6591
ARG_OF_PERICENTER = 257.8607
MEAN_ANOMALY   = 341.7750

EPHEMERIS_TYPE = 0
CLASSIFICATION_TYPE = U
NORAD_CAT_ID   = 68002
ELEMENT_SET_NO = 999
REV_AT_EPOCH   = 596
BSTAR          = .13467286E-2
MEAN_MOTION_DOT = .37909E-3
MEAN_MOTION_DDOT = 0

CCSDS_OMM_VERS = 2.0
CREATION_DATE  = 
ORIGINATOR     = 

OBJECT_NAME    = STARLINK-36862
OBJECT_ID      = 2026-039T
CENTER_NAME    = EARTH
REF_FRAME      = TEME
TIME_SYSTEM    = UTC
MEAN_ELEMENT_THEORY = SGP/SGP4

EPOCH          = 2026-03-28T22:00:01.999584
MEAN_MOTION    = 15.28395080
ECCENTRICITY   = .00011539
INCLINATION    = 42.9994
RA_OF_ASC_NODE = 300.8440
ARG_OF_PERICENTER = 269.5231
MEAN_ANOMALY   = 254.2689

EPHEMERIS_TYPE = 0
CLASSIFICATION_TYPE = U
NORAD_CAT_ID   = 68003
ELEMENT_SET_NO = 999
REV_AT_EPOCH   = 596
BSTAR          = .10099687E-2
MEAN_MOTION_DOT = .28339E-3
MEAN_MOTION_DDOT = 0

CCSDS_OMM_VERS = 2.0
CREATION_DATE  = 
ORIGINATOR     = 

OBJECT_NAME    = STARLINK-36888
OBJECT_ID      = 2026-039U
CENTER_NAME    = EARTH
REF_FRAME      = TEME
TIME_SYSTEM    = UTC
MEAN_ELEMENT_THEORY = SGP/SGP4

EPOCH          = 2026-03-28T22:00:01.999584
MEAN_MOTION    = 15.28391314
ECCENTRICITY   = .00018012
INCLINATION    = 42.9993
RA_OF_ASC_NODE = 300.8579
ARG_OF_PERICENTER = 273.4499
MEAN_ANOMALY   = 245.4330

EPHEMERIS_TYPE = 0
CLASSIFICATION_TYPE = U
NORAD_CAT_ID   = 68004
ELEMENT_SET_NO = 999
REV_AT_EPOCH   = 596
BSTAR          = .1028714E-2
MEAN_MOTION_DOT = .28869E-3
MEAN_MOTION_DDOT = 0

CCSDS_OMM_VERS = 2.0
CREATION_DATE  = 
ORIGINATOR     = 

OBJECT_NAME    = STARLINK-36910
OBJECT_ID      = 2026-039V
CENTER_NAME    = EARTH
REF_FRAME      = TEME
TIME_SYSTEM    = UTC
MEAN_ELEMENT_THEORY = SGP/SGP4

EPOCH          = 2026-03-28T22:00:01.999584
MEAN_MOTION    = 15.28392199
ECCENTRICITY   = .00015955
INCLINATION    = 42.9994
RA_OF_ASC_NODE = 300.5977
ARG_OF_PERICENTER = 268.6467
MEAN_ANOMALY   = 355.6198

EPHEMERIS_TYPE = 0
CLASSIFICATION_TYPE = U
NORAD_CAT_ID   = 68005
ELEMENT_SET_NO = 999
REV_AT_EPOCH   = 596
BSTAR          = .10428247E-2
MEAN_MOTION_DOT = .2927E-3
MEAN_MOTION_DDOT = 0

CCSDS_OMM_VERS = 2.0
CREATION_DATE  = 
ORIGINATOR     = 

OBJECT_NAME    = STARLINK-36889
OBJECT_ID      = 2026-039W
CENTER_NAME    = EARTH
REF_FRAME      = TEME
TIME_SYSTEM    = UTC
MEAN_ELEMENT_THEORY = SGP/SGP4

EPOCH          = 2026-03-28T22:00:01.999584
MEAN_MOTION    = 15.33510823
ECCENTRICITY   = .00012781
INCLINATION    = 42.9990
RA_OF_ASC_NODE = 300.5156
ARG_OF_PERICENTER = 252.3587
MEAN_ANOMALY   = 49.7292

EPHEMERIS_TYPE = 0
CLASSIFICATION_TYPE = U
NORAD_CAT_ID   = 68006
ELEMENT_SET_NO = 999
REV_AT_EPOCH   = 596
BSTAR          = -.62001574E-1
MEAN_MOTION_DOT = -.1840967E-1
MEAN_MOTION_DDOT = 0

CCSDS_OMM_VERS = 2.0
CREATION_DATE  = 
ORIGINATOR     = 

OBJECT_NAME    = STARLINK-36592
OBJECT_ID      = 2026-039X
CENTER_NAME    = EARTH
REF_FRAME      = TEME
TIME_SYSTEM    = UTC
MEAN_ELEMENT_THEORY = SGP/SGP4

EPOCH          = 2026-03-28T22:00:01.999584
MEAN_MOTION    = 15.28375323
ECCENTRICITY   = .00016469
INCLINATION    = 42.9994
RA_OF_ASC_NODE = 300.4487
ARG_OF_PERICENTER = 256.9362
MEAN_ANOMALY   = 69.1552

EPHEMERIS_TYPE = 0
CLASSIFICATION_TYPE = U
NORAD_CAT_ID   = 68007
ELEMENT_SET_NO = 999
REV_AT_EPOCH   = 596
BSTAR          = .12815476E-2
MEAN_MOTION_DOT = .36046E-3
MEAN_MOTION_DDOT = 0

CCSDS_OMM_VERS = 2.0
CREATION_DATE  = 
ORIGINATOR     = 

OBJECT_NAME    = STARLINK-36911
OBJECT_ID      = 2026-039Y
CENTER_NAME    = EARTH
REF_FRAME      = TEME
TIME_SYSTEM    = UTC
MEAN_ELEMENT_THEORY = SGP/SGP4

EPOCH          = 2026-03-28T22:00:01.999584
MEAN_MOTION    = 15.31743447
ECCENTRICITY   = .00012796
INCLINATION    = 42.9997
RA_OF_ASC_NODE = 300.3709
ARG_OF_PERICENTER = 271.6627
MEAN_ANOMALY   = 87.3935

EPHEMERIS_TYPE = 0
CLASSIFICATION_TYPE = U
NORAD_CAT_ID   = 68008
ELEMENT_SET_NO = 999
REV_AT_EPOCH   = 596
BSTAR          = -.75970493E-1
MEAN_MOTION_DOT = -.2135966E-1
MEAN_MOTION_DDOT = 0

CCSDS_OMM_VERS = 2.0
CREATION_DATE  = 
ORIGINATOR     = 

OBJECT_NAME    = STARLINK-36956
OBJECT_ID      = 2026-039Z
CENTER_NAME    = EARTH
REF_FRAME      = TEME
TIME_SYSTEM    = UTC
MEAN_ELEMENT_THEORY = SGP/SGP4

EPOCH          = 2026-03-28T22:00:01.999584
MEAN_MOTION    = 15.33801937
ECCENTRICITY   = .00016519
INCLINATION    = 42.9997
RA_OF_ASC_NODE = 300.3570
ARG_OF_PERICENTER = 252.4353
MEAN_ANOMALY   = 113.4884

EPHEMERIS_TYPE = 0
CLASSIFICATION_TYPE = U
NORAD_CAT_ID   = 68009
ELEMENT_SET_NO = 999
REV_AT_EPOCH   = 596
BSTAR          = -.60939743E-1
MEAN_MOTION_DOT = -.1827987E-1
MEAN_MOTION_DDOT = 0

CCSDS_OMM_VERS = 2.0
CREATION_DATE  = 
ORIGINATOR     = 

OBJECT_NAME    = STARLINK-36953
OBJECT_ID      = 2026-039AA
CENTER_NAME    = EARTH
REF_FRAME      = TEME
TIME_SYSTEM    = UTC
MEAN_ELEMENT_THEORY = SGP/SGP4

EPOCH          = 2026-03-28T22:00:01.999584
MEAN_MOTION    = 15.27521072
ECCENTRICITY   = .00011651
INCLINATION    = 42.9974
RA_OF_ASC_NODE = 300.1552
ARG_OF_PERICENTER = 274.1027
MEAN_ANOMALY   = 169.8229

EPHEMERIS_TYPE = 0
CLASSIFICATION_TYPE = U
NORAD_CAT_ID   = 68010
ELEMENT_SET_NO = 999
REV_AT_EPOCH   = 596
BSTAR          = .21769369E-2
MEAN_MOTION_DOT = .60023E-3
MEAN_MOTION_DDOT = 0

CCSDS_OMM_VERS = 2.0
CREATION_DATE  = 
ORIGINATOR     = 

OBJECT_NAME    = STARLINK-36991
OBJECT_ID      = 2026-039AB
CENTER_NAME    = EARTH
REF_FRAME      = TEME
TIME_SYSTEM    = UTC
MEAN_ELEMENT_THEORY = SGP/SGP4

EPOCH          = 2026-03-28T22:38:21.649632
MEAN_MOTION    = 15.49643811
ECCENTRICITY   = .00064221
INCLINATION    = 42.9989
RA_OF_ASC_NODE = 300.5829
ARG_OF_PERICENTER = 279.2747
MEAN_ANOMALY   = 80.7387

EPHEMERIS_TYPE = 0
CLASSIFICATION_TYPE = U
NORAD_CAT_ID   = 68011
ELEMENT_SET_NO = 999
REV_AT_EPOCH   = 464
BSTAR          = -.33561322E-2
MEAN_MOTION_DOT = -.186526E-2
MEAN_MOTION_DDOT = 0

CCSDS_OMM_VERS = 2.0
CREATION_DATE  = 
ORIGINATOR     = 

OBJECT_NAME    = STARLINK-36936
OBJECT_ID      = 2026-039AC
CENTER_NAME    = EARTH
REF_FRAME      = TEME
TIME_SYSTEM    = UTC
MEAN_ELEMENT_THEORY = SGP/SGP4

EPOCH          = 2026-03-28T22:00:01.999584
MEAN_MOTION    = 15.39334039
ECCENTRICITY   = .00014496
INCLINATION    = 43.0000
RA_OF_ASC_NODE = 300.1563
ARG_OF_PERICENTER = 271.8146
MEAN_ANOMALY   = 176.0934

EPHEMERIS_TYPE = 0
CLASSIFICATION_TYPE = U
NORAD_CAT_ID   = 68012
ELEMENT_SET_NO = 999
REV_AT_EPOCH   = 596
BSTAR          = -.51193445E-1
MEAN_MOTION_DOT = -.1837678E-1
MEAN_MOTION_DDOT = 0

CCSDS_OMM_VERS = 2.0
CREATION_DATE  = 
ORIGINATOR     = 

OBJECT_NAME    = STARLINK-36967
OBJECT_ID      = 2026-039AD
CENTER_NAME    = EARTH
REF_FRAME      = TEME
TIME_SYSTEM    = UTC
MEAN_ELEMENT_THEORY = SGP/SGP4

EPOCH          = 2026-03-27T21:46:16.357728
MEAN_MOTION    = 15.50628686
ECCENTRICITY   = .0001653
INCLINATION    = 42.9999
RA_OF_ASC_NODE = 306.5649
ARG_OF_PERICENTER = 259.5586
MEAN_ANOMALY   = 100.5087

EPHEMERIS_TYPE = 0
CLASSIFICATION_TYPE = U
NORAD_CAT_ID   = 68013
ELEMENT_SET_NO = 999
REV_AT_EPOCH   = 448
BSTAR          = .18536E-2
MEAN_MOTION_DOT = .110139E-2
MEAN_MOTION_DDOT = 0

CCSDS_OMM_VERS = 2.0
CREATION_DATE  = 
ORIGINATOR     = 

OBJECT_NAME    = STARLINK-36985
OBJECT_ID      = 2026-039AE
CENTER_NAME    = EARTH
REF_FRAME      = TEME
TIME_SYSTEM    = UTC
MEAN_ELEMENT_THEORY = SGP/SGP4

EPOCH          = 2026-03-28T22:00:01.999584
MEAN_MOTION    = 15.27540603
ECCENTRICITY   = .00013168
INCLINATION    = 42.9991
RA_OF_ASC_NODE = 300.0495
ARG_OF_PERICENTER = 272.4404
MEAN_ANOMALY   = 214.0293

EPHEMERIS_TYPE = 0
CLASSIFICATION_TYPE = U
NORAD_CAT_ID   = 68014
ELEMENT_SET_NO = 999
REV_AT_EPOCH   = 596
BSTAR          = .14769017E-2
MEAN_MOTION_DOT = .40554E-3
MEAN_MOTION_DDOT = 0

CCSDS_OMM_VERS = 2.0
CREATION_DATE  = 
ORIGINATOR     = 

OBJECT_NAME    = STARLINK-36335
OBJECT_ID      = 2026-040A
CENTER_NAME    = EARTH
REF_FRAME      = TEME
TIME_SYSTEM    = UTC
MEAN_ELEMENT_THEORY = SGP/SGP4

EPOCH          = 2026-03-28T19:15:13.821984
MEAN_MOTION    = 15.75666337
ECCENTRICITY   = .00032213
INCLINATION    = 97.2863
RA_OF_ASC_NODE = 37.1845
ARG_OF_PERICENTER = 143.2550
MEAN_ANOMALY   = 216.8937

EPHEMERIS_TYPE = 0
CLASSIFICATION_TYPE = U
NORAD_CAT_ID   = 68015
ELEMENT_SET_NO = 999
REV_AT_EPOCH   = 436
BSTAR          = .33694948E-2
MEAN_MOTION_DOT = .547143E-2
MEAN_MOTION_DDOT = 0

